ONEWEB-0452             
1 51644U 22012Y   25293.32478964  .00000034  00000+0  53994-4 0  9991
2 51644  87.9107  53.5847 0001369  97.6566 262.4721 13.17647502182083
ONEWEB-0456             
1 51646U 22012AA  25293.12263578  .00000167  00000+0  44323-3 0  9996
2 51646  87.8768  84.0838 0001642 101.1162 259.0150 13.10369199177902
ONEWEB-0457             
1 51647U 22012AB  25293.17576992  .00000593  00000+0  16610-2 0  9999
2 51647  87.8758  84.1264 0001713  79.5329 280.5991 13.10373918177915
ONEWEB-0458             
1 51648U 22012AC  25293.12098106  .00000254  00000+0  69131-3 0  9992
2 51648  87.8756  84.1083 0001409  93.7655 266.3633 13.10369666177869
ONEWEB-0461             
1 51649U 22012AD  25293.27080564 -.00000036  00000+0 -12515-3 0  9992
2 51649  87.9118  53.5509 0001781  94.8661 265.2674 13.17648528182298
ONEWEB-0463             
1 51650U 22012AE  25293.25224351  .00000037  00000+0  61682-4 0  9995
2 51650  87.9099  53.6076 0001582  97.1267 263.0045 13.17649404182073
ONEWEB-0464             
1 51651U 22012AF  25293.11766541  .00000346  00000+0  95365-3 0  9990
2 51651  87.8755  84.1479 0001647 105.4305 254.7005 13.10369624177888
ONEWEB-0468             
1 51652U 22012AG  25293.12430881  .00000093  00000+0  22998-3 0  9998
2 51652  87.8757  84.1391 0001454 101.8934 258.2357 13.10372459177865
ONEWEB-0473             
1 51653U 22012AH  25293.18572971  .00000678  00000+0  19064-2 0  9990
2 51653  87.8758  84.1302 0001477  95.7956 264.3340 13.10372062177870
ONEWEB-0474             
1 51654U 22012AJ  25293.17742923  .00000605  00000+0  16966-2 0  9994
2 51654  87.8765  84.0946 0001490 103.9727 256.1566 13.10373662177860
ONEWEB-0475             
1 51655U 22012AK  25293.26405336 -.00000019  00000+0 -81443-4 0  9994
2 51655  87.9105  53.5906 0001160 123.5976 236.5266 13.17648791182090
ONEWEB-0490             
1 54113U 22138A   25293.17441805  .00000098  00000+0  21135-3 0  9992
2 54113  87.9267 352.7013 0001940 105.0552 255.0795 13.19727758145179
ONEWEB-0492             
1 54114U 22138B   25293.19971834  .00000089  00000+0  18970-3 0  9998
2 54114  87.9259 352.7161 0002054 103.5195 256.6166 13.19725132145182
ONEWEB-0495             
1 54115U 22138C   25293.25339336  .00000096  00000+0  20774-3 0  9994
2 54115  87.9255 352.7116 0001989 120.8990 239.2339 13.19728016145172
ONEWEB-0497             
1 54116U 22138D   25293.19022571  .00000120  00000+0  26697-3 0  9996
2 54116  87.9266 352.7057 0001904 102.0304 258.1042 13.19724591145150
ONEWEB-0499             
1 54117U 22138E   25293.24945821  .00000034  00000+0  53396-4 0  9996
2 54117  87.9260 352.7089 0001706 103.4150 256.7173 13.19723931145172
