[{"OBJECT_NAME":"ONEWEB-0452","OBJECT_ID":"2022-012Y","EPOCH":"2025-10-20T07:47:41.824896","MEAN_MOTION":13.17647502,"ECCENTRICITY":0.00013691,"INCLINATION":87.9107,"RA_OF_ASC_NODE":53.5847,"ARG_OF_PERICENTER":97.6566,"MEAN_ANOMALY":262.4721,"EPHEMERIS_TYPE":0,"CLASSIFICATION_TYPE":"U","NORAD_CAT_ID":51644,"ELEMENT_SET_NO":999,"REV_AT_EPOCH":18208,"BSTAR":5.3993723e-5,"MEAN_MOTION_DOT":3.4e-7,"MEAN_MOTION_DDOT":0},{"OBJECT_NAME":"ONEWEB-0456","OBJECT_ID":"2022-012AA","EPOCH":"2025-10-20T02:56:35.731392","MEAN_MOTION":13.10369199,"ECCENTRICITY":0.00016425,"INCLINATION":87.8768,"RA_OF_ASC_NODE":84.0838,"ARG_OF_PERICENTER":101.1162,"MEAN_ANOMALY":259.015,"EPHEMERIS_TYPE":0,"CLASSIFICATION_TYPE":"U","NORAD_CAT_ID":51646,"ELEMENT_SET_NO":999,"REV_AT_EPOCH":17790,"BSTAR":0.00044323469,"MEAN_MOTION_DOT":1.67e-6,"MEAN_MOTION_DDOT":0},{"OBJECT_NAME":"ONEWEB-0457","OBJECT_ID":"2022-012AB","EPOCH":"2025-10-20T04:13:06.521088","MEAN_MOTION":13.10373918,"ECCENTRICITY":0.00017139,"INCLINATION":87.8758,"RA_OF_ASC_NODE":84.1264,"ARG_OF_PERICENTER":79.5329,"MEAN_ANOMALY":280.5991,"EPHEMERIS_TYPE":0,"CLASSIFICATION_TYPE":"U","NORAD_CAT_ID":51647,"ELEMENT_SET_NO":999,"REV_AT_EPOCH":17791,"BSTAR":0.0016610017,"MEAN_MOTION_DOT":5.93e-6,"MEAN_MOTION_DDOT":0},{"OBJECT_NAME":"ONEWEB-0458","OBJECT_ID":"2022-012AC","EPOCH":"2025-10-20T02:54:12.763584","MEAN_MOTION":13.10369666,"ECCENTRICITY":0.0001409,"INCLINATION":87.8756,"RA_OF_ASC_NODE":84.1083,"ARG_OF_PERICENTER":93.7655,"MEAN_ANOMALY":266.3633,"EPHEMERIS_TYPE":0,"CLASSIFICATION_TYPE":"U","NORAD_CAT_ID":51648,"ELEMENT_SET_NO":999,"REV_AT_EPOCH":17786,"BSTAR":0.00069130914,"MEAN_MOTION_DOT":2.54e-6,"MEAN_MOTION_DDOT":0},{"OBJECT_NAME":"ONEWEB-0461","OBJECT_ID":"2022-012AD","EPOCH":"2025-10-20T06:29:57.607296","MEAN_MOTION":13.17648528,"ECCENTRICITY":0.00017814,"INCLINATION":87.9118,"RA_OF_ASC_NODE":53.5509,"ARG_OF_PERICENTER":94.8661,"MEAN_ANOMALY":265.2674,"EPHEMERIS_TYPE":0,"CLASSIFICATION_TYPE":"U","NORAD_CAT_ID":51649,"ELEMENT_SET_NO":999,"REV_AT_EPOCH":18229,"BSTAR":-0.00012514827,"MEAN_MOTION_DOT":-3.6e-7,"MEAN_MOTION_DDOT":0},{"OBJECT_NAME":"ONEWEB-0463","OBJECT_ID":"2022-012AE","EPOCH":"2025-10-20T06:03:13.839264","MEAN_MOTION":13.17649404,"ECCENTRICITY":0.00015823,"INCLINATION":87.9099,"RA_OF_ASC_NODE":53.6076,"ARG_OF_PERICENTER":97.1267,"MEAN_ANOMALY":263.0045,"EPHEMERIS_TYPE":0,"CLASSIFICATION_TYPE":"U","NORAD_CAT_ID":51650,"ELEMENT_SET_NO":999,"REV_AT_EPOCH":18207,"BSTAR":6.1681598e-5,"MEAN_MOTION_DOT":3.7e-7,"MEAN_MOTION_DDOT":0},{"OBJECT_NAME":"ONEWEB-0464","OBJECT_ID":"2022-012AF","EPOCH":"2025-10-20T02:49:26.291424","MEAN_MOTION":13.10369624,"ECCENTRICITY":0.00016471,"INCLINATION":87.8755,"RA_OF_ASC_NODE":84.1479,"ARG_OF_PERICENTER":105.4305,"MEAN_ANOMALY":254.7005,"EPHEMERIS_TYPE":0,"CLASSIFICATION_TYPE":"U","NORAD_CAT_ID":51651,"ELEMENT_SET_NO":999,"REV_AT_EPOCH":17788,"BSTAR":0.00095364992,"MEAN_MOTION_DOT":3.46e-6,"MEAN_MOTION_DDOT":0},{"OBJECT_NAME":"ONEWEB-0468","OBJECT_ID":"2022-012AG","EPOCH":"2025-10-20T02:59:00.281184","MEAN_MOTION":13.10372459,"ECCENTRICITY":0.00014548,"INCLINATION":87.8757,"RA_OF_ASC_NODE":84.1391,"ARG_OF_PERICENTER":101.8934,"MEAN_ANOMALY":258.2357,"EPHEMERIS_TYPE":0,"CLASSIFICATION_TYPE":"U","NORAD_CAT_ID":51652,"ELEMENT_SET_NO":999,"REV_AT_EPOCH":17786,"BSTAR":0.00022998074,"MEAN_MOTION_DOT":9.3e-7,"MEAN_MOTION_DDOT":0},{"OBJECT_NAME":"ONEWEB-0473","OBJECT_ID":"2022-012AH","EPOCH":"2025-10-20T04:27:27.046944","MEAN_MOTION":13.10372062,"ECCENTRICITY":0.00014778,"INCLINATION":87.8758,"RA_OF_ASC_NODE":84.1302,"ARG_OF_PERICENTER":95.7956,"MEAN_ANOMALY":264.334,"EPHEMERIS_TYPE":0,"CLASSIFICATION_TYPE":"U","NORAD_CAT_ID":51653,"ELEMENT_SET_NO":999,"REV_AT_EPOCH":17787,"BSTAR":0.0019064492,"MEAN_MOTION_DOT":6.78e-6,"MEAN_MOTION_DDOT":0},{"OBJECT_NAME":"ONEWEB-0474","OBJECT_ID":"2022-012AJ","EPOCH":"2025-10-20T04:15:29.885472","MEAN_MOTION":13.10373662,"ECCENTRICITY":0.00014907,"INCLINATION":87.8765,"RA_OF_ASC_NODE":84.0946,"ARG_OF_PERICENTER":103.9727,"MEAN_ANOMALY":256.1566,"EPHEMERIS_TYPE":0,"CLASSIFICATION_TYPE":"U","NORAD_CAT_ID":51654,"ELEMENT_SET_NO":999,"REV_AT_EPOCH":17786,"BSTAR":0.001696643,"MEAN_MOTION_DOT":6.05e-6,"MEAN_MOTION_DDOT":0},{"OBJECT_NAME":"ONEWEB-0475","OBJECT_ID":"2022-012AK","EPOCH":"2025-10-20T06:20:14.210304","MEAN_MOTION":13.17648791,"ECCENTRICITY":0.00011604,"INCLINATION":87.9105,"RA_OF_ASC_NODE":53.5906,"ARG_OF_PERICENTER":123.5976,"MEAN_ANOMALY":236.5266,"EPHEMERIS_TYPE":0,"CLASSIFICATION_TYPE":"U","NORAD_CAT_ID":51655,"ELEMENT_SET_NO":999,"REV_AT_EPOCH":18209,"BSTAR":-8.1443491e-5,"MEAN_MOTION_DOT":-1.9e-7,"MEAN_MOTION_DDOT":0},{"OBJECT_NAME":"ONEWEB-0490","OBJECT_ID":"2022-138A","EPOCH":"2025-10-20T04:11:09.719520","MEAN_MOTION":13.19727758,"ECCENTRICITY":0.00019407,"INCLINATION":87.9267,"RA_OF_ASC_NODE":352.7013,"ARG_OF_PERICENTER":105.0552,"MEAN_ANOMALY":255.0795,"EPHEMERIS_TYPE":0,"CLASSIFICATION_TYPE":"U","NORAD_CAT_ID":54113,"ELEMENT_SET_NO":999,"REV_AT_EPOCH":14517,"BSTAR":0.00021135189,"MEAN_MOTION_DOT":9.8e-7,"MEAN_MOTION_DDOT":0},{"OBJECT_NAME":"ONEWEB-0492","OBJECT_ID":"2022-138B","EPOCH":"2025-10-20T04:47:35.664576","MEAN_MOTION":13.19725132,"ECCENTRICITY":0.00020543,"INCLINATION":87.9259,"RA_OF_ASC_NODE":352.7161,"ARG_OF_PERICENTER":103.5195,"MEAN_ANOMALY":256.6166,"EPHEMERIS_TYPE":0,"CLASSIFICATION_TYPE":"U","NORAD_CAT_ID":54114,"ELEMENT_SET_NO":999,"REV_AT_EPOCH":14518,"BSTAR":0.00018970478,"MEAN_MOTION_DOT":8.9e-7,"MEAN_MOTION_DDOT":0},{"OBJECT_NAME":"ONEWEB-0495","OBJECT_ID":"2022-138C","EPOCH":"2025-10-20T06:04:53.186304","MEAN_MOTION":13.19728016,"ECCENTRICITY":0.00019895,"INCLINATION":87.9255,"RA_OF_ASC_NODE":352.7116,"ARG_OF_PERICENTER":120.899,"MEAN_ANOMALY":239.2339,"EPHEMERIS_TYPE":0,"CLASSIFICATION_TYPE":"U","NORAD_CAT_ID":54115,"ELEMENT_SET_NO":999,"REV_AT_EPOCH":14517,"BSTAR":0.00020774059,"MEAN_MOTION_DOT":9.6e-7,"MEAN_MOTION_DDOT":0},{"OBJECT_NAME":"ONEWEB-0497","OBJECT_ID":"2022-138D","EPOCH":"2025-10-20T04:33:55.501344","MEAN_MOTION":13.19724591,"ECCENTRICITY":0.00019043,"INCLINATION":87.9266,"RA_OF_ASC_NODE":352.7057,"ARG_OF_PERICENTER":102.0304,"MEAN_ANOMALY":258.1042,"EPHEMERIS_TYPE":0,"CLASSIFICATION_TYPE":"U","NORAD_CAT_ID":54116,"ELEMENT_SET_NO":999,"REV_AT_EPOCH":14515,"BSTAR":0.00026696805,"MEAN_MOTION_DOT":1.2e-6,"MEAN_MOTION_DDOT":0},{"OBJECT_NAME":"ONEWEB-0499","OBJECT_ID":"2022-138E","EPOCH":"2025-10-20T05:59:13.189344","MEAN_MOTION":13.19723931,"ECCENTRICITY":0.00017062,"INCLINATION":87.926,"RA_OF_ASC_NODE":352.7089,"ARG_OF_PERICENTER":103.415,"MEAN_ANOMALY":256.7173,"EPHEMERIS_TYPE":0,"CLASSIFICATION_TYPE":"U","NORAD_CAT_ID":54117,"ELEMENT_SET_NO":999,"REV_AT_EPOCH":14517,"BSTAR":5.3396179e-5,"MEAN_MOTION_DOT":3.4e-7,"MEAN_MOTION_DDOT":0}]
